SKYSAT-A                
1 39418U 13066C   26196.09964842  .00001524  00000+0  89294-4 0  9994
2 39418  97.3805 244.6073 0020508 213.8194 146.1731 15.13115170692700
SKYSAT-B                
1 40072U 14037D   26196.83755785  .00000600  00000+0  71934-4 0  9993
2 40072  98.3854 157.4397 0005626 170.7304 189.4016 14.88092801650224
SKYSAT-C1               
1 41601U 16040C   26196.54530963  .00005374  00000+0  15178-3 0  9995
2 41601  96.9548 226.7338 0000299 305.8175  54.3043 15.36752207562229
SKYSAT-C4               
1 41771U 16058B   26196.49741296  .00011548  00000+0  21162-3 0  9999
2 41771  96.9158 217.0987 0003425 116.4408 243.7197 15.49444803549858
SKYSAT-C5               
1 41772U 16058C   26196.34177105  .00004080  00000+0  12741-3 0  9992
2 41772  97.0454 235.7193 0002566 160.1031 200.0313 15.33720350548064
SKYSAT-C2               
1 41773U 16058D   26196.02683222  .00007118  00000+0  16515-3 0  9998
2 41773  97.0156 217.0836 0001519 354.7019   5.4213 15.42678066549349
SKYSAT-C3               
1 41774U 16058E   26196.04101935  .00014739  00000+0  23177-3 0  9996
2 41774  96.8991 225.8356 0002515 132.0460 228.1009 15.53702651550431
SKYSAT-C11              
1 42987U 17068A   26196.94765457  .00018575  00000+0  23691-3 0  9992
2 42987  97.4381 347.0668 0001161 158.9178 201.2126 15.59351131487722
SKYSAT-C10              
1 42988U 17068B   26196.91234370  .00006009  00000+0  17869-3 0  9994
2 42988  97.4542 334.0538 0001464 110.9376 249.2024 15.35125075486760
SKYSAT-C9               
1 42989U 17068C   26196.92334098  .00007471  00000+0  17585-3 0  9993
2 42989  97.4461 335.2786 0008579  42.5748 317.6163 15.42224961487189
SKYSAT-C8               
1 42990U 17068D   26196.90461324  .00005815  00000+0  16040-3 0  9991
2 42990  97.4558 333.9566 0001212 103.3850 256.7530 15.37499510486724
SKYSAT-C7               
1 42991U 17068E   26196.89911915  .00005755  00000+0  15897-3 0  9998
2 42991  97.4569 334.9426 0005667  18.9667 341.1788 15.37449994486789
SKYSAT-C6               
1 42992U 17068F   26196.91048354  .00005061  00000+0  15543-3 0  9998
2 42992  97.4607 334.8045 0005081  87.6386 272.5438 15.34176907486721
SKYSAT-C12              
1 43797U 18099AR  26196.89961408  .00010566  00000+0  19132-3 0  9992
2 43797  96.9252 218.9975 0005299  68.6700 291.5117 15.49801483426302
